Location,Address,24 Hours,Mon-Fri,Sat,Latitude,Longitude,Closest_Circle_K_Add,Circle_K_Latitude,Circle_K_Longitude,Distance_km,Closest_Circle_K_Loc
North Point,"Portion of Unit No. 2 on the Portion of the G/F of the Podium of Block 1, 2 & 3 City Garden, No. 233 Electric Road, North Point, Hong Kong",24 Hours,,,22.2907736,114.1944115,"Unit No. 5, G/F., Block 1, 2 & 3 City Garden, No. 233 Electric Road, Hong Kong",22.2912167,114.1950775,0.0843669023133221,North Point
Western,"Shop No. 5, G/F, Block B, Mei Sun Lau, Nos. 489/499 Des Voeux Road West, Shek Tong Tsui, Hong Kong",24 Hours,,,22.2868961,114.1339118,"G/F., Nos. 333 & 335 Des Voeux Road West, Hong Kong",22.2875596,114.1386087,0.4895737375342995,Sai Wan
Wan Chai,"Shop C & D, G/F, Nos. 8-12 Fenwick Street, Nos. 42-50 Lockhart Road, Wan Chai, Hong Kong",24 Hours,,,22.2780103,114.170549,"G/F & M/F, 38 Hennessy Rd, Wanchai, H.K.",22.2773896,114.1704959,0.0689501328632678,Wanchai
Sai Wan Ho,"Shop No. GC04, G/F, Lei King Wan, Site C, No. 35 Tai Hong Street, Hong Kong",24 Hours,,,22.28505,114.223797,"Shop B G/F., Nos 106-108 Shau Kei Wan Road, Hong Kong",22.2821321,114.2216237,0.3931458299255959,Shau Kei Wan
Wan Chai,"Shop No. 1, G/F, Chuang's Enterprises Building, No. 382 Lockhart Road, Wan Chai, Hong Kong",24 Hours,,,22.279276,114.1798147,"Shop G4B G/F., Pak Ling Building, 368-374 Lockhart Road, Hong Kong",22.2791602,114.1794431,0.0403864129391777,Wanchai
Shau Kei Wan,"Shop No. C2, G/F, King Fai Building, Nos. 98-112 Shau Kei Wan Main Street East, Shau Kei Wan, Hong Kong",,Monday to Friday: 0700-0000,Saturday: 0700-0000,22.2786788,114.2299015,"Shop B G/F., The Eastborne, No. 51 Shau Kei Wan Main Street East, Hong Kong",22.2803075,114.2305921,0.1938879554011374,Shau Kei Wan
Sheung Wan,"Shop Nos. 1C, 1D & 1E, G/F, Site A, Queen's Terrace, No. 1 Queen Street, Sheung Wan, Hong Kong",24 Hours,,,22.2870208,114.1476807,"Shops D & H, G/F., Sea View Mansion, No. 82, 83, 84, 86, 87 Connaught Road West, Nos. 21, 23, 25, 27 Sutherland Street, Hong Kong",22.2881338,114.1461184,0.2027574602036467,Sheung Wan
Quarry Bay,Kiosk QUB 2 at Unpaid Concourse of MTR Quarry Bay Station (West Concourse),,Monday to Friday: 0700-2330,Saturday: 0700-2330,22.2878881,114.2097482,KIOSK QUB3 at Quarry Bay MTR Station,22.28800384,114.2097574,0.0128513928361124,Quarry Bay
Central,"Shop B, Lower Deck Level, Central Pier 7, Star Ferry, Hong Kong",,Monday to Friday: 0700-2300,Saturday: 0700-2300,22.2870931,114.1612153,"Shop Nos. A, B & C G/F., Pier 3, 11 Man Kwong Street, Central, HK",22.2871502,114.1612735,0.0087150182746679,Central
North Point,"Shop C & D, G/F, Yan Wo Building, No. 70 Java Road, North Point, Hong Kong",24 Hours,,,22.2918133,114.1984477,"Shop No.4, G/F., Cheong Yuen Apartments, Nos.2,4,6,8,8A Tsat Tsz Mui Road, North Point",22.2906342,114.2007566,0.2714025733872759,North Point
Western,"Shop A, G/F, Fook Moon Building, Nos. 56-72 Third Street, Sai Wan, Hong Kong",24 Hours,,,22.2855391,114.1419613,"Shop A G/F., No. 64 Centre Street, Hong Kong",22.284929,114.142068,0.068447898471629,Western District
Causeway Bay,"Shop G, G/F, Pun Tak Building, Nos. 478-484 Lockhart Road, Causeway Bay, Hong Kong",24 Hours,,,22.2801919,114.182229,"Shop B on Ground Floor, Po Hon Building, 24-30 Percival Street, Hong Kong",22.2806683,114.1825387,0.0616575310419279,Causeway Bay
Chai Wan,"Shop No. 8, Lower Ground Floor, Hiu Fung House, Fung Wah Estate, Chai Wan, Hong Kong",,Monday to Friday: 0700-2300,Saturday: 0700-2300,22.2605481,114.2310959,"Shop 209-210, Wo Hing Hse, Hing Wah Est (II), Chai Wan, H.K.",22.2630132,114.2330593,0.3398036008566102,Chai Wan
Central,Concession HOK 59 at Hong Kong MTR Station,,Monday to Friday: 0700-0000,Saturday: 0700-0000,22.2837134,114.1583214,Kiosk No. CEN E7 MTR Central Station,22.2819989,114.1576766,0.2011469142404131,Central
Aberdeen,"G/F, No. 178 Aberdeen Main Road, Aberdeen, Hong Kong",24 Hours,,,22.2489355,114.1558538,"Ground Floor, No. 23 Tung Sing Road, Hong Kong",22.2487125,114.1551595,0.0757094407146126,Aberdeen
Chai Wan,"Shop No. 201, Level 2, Hing Wah Plaza, Hing Wah (I) Estate, No. 11 Wan Tsui Road, Chai Wan, Hong Kong",,Monday to Friday: 0700-2300,Saturday: 0700-2300,22.2627217,114.2357446,"KIOSK No. CHW12 at Chai Wan Station, Chai Wan (Exit C)",22.264625,114.237139,0.2550988107542565,Chai Wan
Western,"Portion of Flat B, Ground Floor, Nos. 316-320 Des Voeux Road West, Sai Wan, Hong Kong",24 Hours,,,22.2872151,114.1387216,"G/F., Nos. 333 & 335 Des Voeux Road West, Hong Kong",22.2875596,114.1386087,0.0398826939489282,Sai Wan
Wan Chai,"G/F, No. 27 Queen's Road East, Wan Chai, Hong Kong",24 Hours,,,22.2769227,114.1686257,"G/F & M/F, 38 Hennessy Rd, Wanchai, H.K.",22.2773896,114.1704959,0.1995571871422469,Wanchai
Central,"Shop B, G/F & M/F, Nos. 68, 68A, 70 & 70A Hollywood Road, Hong Kong",24 Hours,,,22.2831855,114.1525942,"Shop No.1 G/F., & Open Yard Nos.10-16 Cochrane Street, Hong Kong",22.2831647,114.1546298,0.2097931995742926,Central
Wan Chai,"Shop B, G/F, Man Hing Mansion, Nos. 193 & 195 Wan Chai Road, Wan Chai, Hong Kong",24 Hours,,,22.2776292,114.1784427,"Shop G4B G/F., Pak Ling Building, 368-374 Lockhart Road, Hong Kong",22.2791602,114.1794431,0.1984224146952549,Wanchai
Sheung Wan,"Shop No. 289 on 2nd Floor, Shun Tak Centre, Nos. 168-200 Connaught Road Central, Hong Kong",,Monday to Friday: 0700-2300,Saturday: 0700-2300,22.2879098,114.1517914,"Shop 11, 12 and 13, G/F., Western Market, 323 Des Voeux Road, Sheung Wan, Hong Kong",22.287287,114.150392,0.1598538931446295,Sheung Wan
Central,"Lower Ground Floor, No. 166 Wellington Street, Sheung Wan, Hong Kong",24 Hours,,,22.2844752,114.1532388,"Shop No.1 G/F., & Open Yard Nos.10-16 Cochrane Street, Hong Kong",22.2831647,114.1546298,0.20398090001794,Central
Wan Chai,"Shop C, G/F, Lee West Commercial Building, Nos. 375-379 Hennessy Road, Wan Chai, Hong Kong",24 Hours,,,22.2790348,114.179893,"Shop G4B G/F., Pak Ling Building, 368-374 Lockhart Road, Hong Kong",22.2791602,114.1794431,0.0484008845240627,Wanchai
Causeway Bay,"G/F, No. 17 Pennington Street, Causeway Bay, Hong Kong",24 Hours,,,22.278503,114.1859776,"G/F., 33 Jardine's Bazaar, Hong Kong",22.2795144,114.1849559,0.1537215099154775,Causeway Bay
Causeway Bay,"Portion of Shop B on Ground Floor, Wun Sha Mansion, Nos. 8-10 Wun Sha Street, Causeway Bay, Hong Kong",24 Hours,,,22.2789775,114.1923488,KIOSK TIH 2 at Tin Hau MTR Station,22.2824215,114.1917258,0.3867349958399926,Tin Hau
Sheung Wan,"Shops F & G, Ground Floor, Ovolo, No. 222 Hollywood Road, Sheung Wan, Hong Kong",24 Hours,,,22.2855218,114.1475467,"Shops D & H, G/F., Sea View Mansion, No. 82, 83, 84, 86, 87 Connaught Road West, Nos. 21, 23, 25, 27 Sutherland Street, Hong Kong",22.2881338,114.1461184,0.3245359283491148,Sheung Wan
Sheung Wan,"Shop No. 2, Ground Floor, Golden Valley Mansion, Nos. 135A-137A Caine Road, Mid-Level, Hong Kong",,Monday to Friday: 0700-0000,Saturday: 0700-0000,22.2829992,114.1498113,"Shop No. 28A G/F., Lily Court,? 28A Robinson Road, HK",22.2794066,114.1521066,0.4628369855668464,Central
Chai Wan,"Shop No. 401, G/F, Lok Hin Terrace, No. 350 Chai Wan Road, Chai Wan, Hong Kong",24 Hours,,,22.263856,114.240559,"KIOSK No. CHW12 at Chai Wan Station, Chai Wan (Exit C)",22.264625,114.237139,0.3626382405701669,Chai Wan
Sheung Wan,"G/F & the Cockloft, No. 298 Des Voeux Road Central, Sheung Wan, Hong Kong",24 Hours,,,22.2866507,114.1509721,"Shop 11, 12 and 13, G/F., Western Market, 323 Des Voeux Road, Sheung Wan, Hong Kong",22.287287,114.150392,0.0924035343240066,Sheung Wan
Western,"Portion of Shop C on G/F, Wing Sing Court, Nos. 178-180 Third Street, Sai Ying Pun, Hong Kong",,Monday to Friday: 0700-2300,Saturday: 0700-2300,22.2857306,114.1388029,"G/F., Nos. 333 & 335 Des Voeux Road West, Hong Kong",22.2875596,114.1386087,0.2035191530149552,Sai Wan
Apleichau,"Shop No. 43, G/F, Lei Chak House, Ap Lei Chau Estate, Nos. 322, 326, 328, 330 & 332 Ap Lei Chau Bridge Road, Hong Kong",24 Hours,,,22.24422,114.14986,"Shop No. 2, G/F., East Commercial Block of South Horizons, No. 18A South Horizon Drive, Apleichau, Hong Kong",22.2433943,114.1483479,0.1807118326378503,AP Lei Chau
Southern,"Shop D, Lower Ground Floor, Chik Tak Mansion, No. 11 Stanley New Street, Stanley, Hong Kong",24 Hours,,,22.2187,114.2126492,Concession No. OCP 5 at MTR Ocean Park Station,22.2486966,114.1744429,5.152387343836186,Wong Chuk Hang
Central,"Ground Floor, Lan Fong House, No. 3 Lan Kwai Fong, Central, Hong Kong",,Monday to Friday: 0700-0200,Saturday: 0700-0200,22.2810697,114.1554776,"Shop E , G/F, No. 10 D’Aguilar Street, Yip Fung Building, Nos. 2, 4, 6, 8 & 10 D’Aguilar Street, Hong Kong",22.2813798,114.1562058,0.0825293559864005,Central
North Point,"Shop No. K12, Lower Deck, North Point West Pier, Hong Kong",,Monday to Friday: 0700-2300,Saturday: 0700-2300,22.2884683,114.192803,"Shop No.25-27, G/F., King's Centre, 193-209 King's Road, Hong Kong",22.2893806,114.1942585,0.1808400349702904,North Point
Sai Wan Ho,"Shop No. GD18, G/F, No. 25 Tai On Street, T-13 to T-17, Site D, Lei King Wan, Hong Kong",,Monday to Friday: 0700-2300,Saturday: 0700-2300,22.2840926,114.223339,"Shop B G/F., Nos 106-108 Shau Kei Wan Road, Hong Kong",22.2821321,114.2216237,0.279961043003364,Shau Kei Wan
Wan Chai,"Shop A, Ground Floor, Tung Shing Building, Nos. 118 and 120 Queen's Road East, No. 2 Lun Fat Street, Wan Chai, Hong Kong",,Monday to Friday: 0700-0000,Saturday: 0700-0000,22.2760799,114.1703948,"G/F & M/F, 38 Hennessy Rd, Wanchai, H.K.",22.2773896,114.1704959,0.1454021589498932,Wanchai
Central,"Shop No. 1, Ground Floor, No. 9 Chiu Lung Street, Central, Hong Kong",,Monday to Friday: 0700-2300,Saturday: 0700-2300,22.282582,114.15652,Kiosk No. CEN E7 MTR Central Station,22.2819989,114.1576766,0.1355605206557671,Central
Wan Chai,"Shops K and L on Ground Floor, Cheung Chun Building, Nos. 8, 10 & 10A Wood Road, Wan Chai, Hong Kong",,Monday to Friday: 0700-2300,Saturday: 0700-2300,22.2771288,114.177625,"G/F., 89 Wan Chai Road, Hong Kong",22.276516,114.1750012,0.2787945126768086,Wanchai
Aberdeen,"G/F, No. 38 Aberdeen Main Road, Aberdeen, Hong Kong",,Monday to Friday: 0700-2330,Saturday: 0700-2330,22.247602,114.158154,"Shop 7, Shek Pai Wan Shopping Centre, Aberdeen, Hong Kong",22.248788,114.1570334,0.1749024760290525,Aberdeen
Causeway Bay,"Ground Floor, No. 68 Tung Lo Wan Road, Tai Hang, Hong Kong",,Monday to Friday: 0700-2200,Saturday: 0700-2200,22.2789233,114.19153,KIOSK TIH 2 at Tin Hau MTR Station,22.2824215,114.1917258,0.3878951708696757,Tin Hau
Aberdeen,"Shop C & D, Ground Floor, Kam Tseuk Mansion, Nos. 1-3 Ka Wo Street, Aberdeen, Hong Kong",24 Hours,,,22.2494804,114.148882,"Shop Nos. 3 & 4, G/F., Silver Mansion, 81 Shek Pai Wan Road, Aberdeen, Hong Kong",22.2493714,114.1487427,0.0187581627876086,Aberdeen
Tai Koo Shing,"Shop Nos. G506-G507, Ning On Mansion, Stage V, Taikoo Shing, Island East, Hong Kong",24 Hours,,,22.2861969,114.2148551,"KIOSK NO. TAK9, Tai Koo MTR Station",22.28465,114.21636,0.2310706009925423,Taikoo
Quarry Bay,"Shop No. 3, G/F, AIA Hong Kong Tower, No. 734 King's Road, Quarry Bay, Hong Kong",24 Hours,,,22.291188,114.207922,"Shop No. A at Podium Level 1, Phase 1, Healthy Village, Tsat Tsz Mui Road, North Point, Hong Kong",22.2918325,114.2060903,0.201797797235891,North Point
North Point,Kiosk No. NOP 3 at MTR North Point Station,,Monday to Friday: 0700-0000,Saturday: 0700-0000,22.29136677,114.2005007,"Shop No.4, G/F., Cheong Yuen Apartments, Nos.2,4,6,8,8A Tsat Tsz Mui Road, North Point",22.2906342,114.2007566,0.0852991882435416,North Point
Causeway Bay,"Ground Floor, No. 60 Percival Street, Causeway Bay, Hong Kong",24 Hours,,,22.2792054,114.183211,"Shop No.K G/F., Po Ming Building, 2-6 Foo Ming Street,49-57 Lee Garden Road, 96-106 Percival Street, Hong Kong",22.2784909,114.1835534,0.0866319482237571,Causeway Bay
Causeway Bay,"G/F, Golden Bloom Centre, Nos. 25-27 Jardine's Bazaar, Causeway Bay, Hong Kong",24 Hours,,,22.279626,114.184803,"G/F., 33 Jardine's Bazaar, Hong Kong",22.2795144,114.1849559,0.0200255264686303,Causeway Bay
Causeway Bay,"Shop A & Portion of Shop B, Ground Floor, Vulcan House, Nos. 21-23 Leighton Road, Causeway Bay, Hong Kong",24 Hours,,,22.2771123,114.1817885,"G/F & Cockloft, 5 Canal Road East, Hong Kong",22.2787376,114.1814101,0.1841526622824454,Wanchai
Western,"Unit 1, Ground Floor, Yue Yee Mansion, Nos. 18A, 20 & 20A Belcher's Street, Western, Hong Kong",24 Hours,,,22.2836251,114.1309763,"Shop 6 on Ground Floor, Sands House,Nos.10,12,14 & 18 Sands Street Nos.39, 39A & 39B Belcher’s Street, Hong Kong",22.283467,114.1300622,0.0958161145107256,Sai Wan
Wan Chai,"Shop Nos. 134-135, First Floor, Sun Hung Kai Centre, No. 30 Harbour Road, Wan Chai, Hong Kong",,Monday to Friday: 0700-2300,Saturday: 0700-2300,22.2803654,114.1769119,"Shop G4B G/F., Pak Ling Building, 368-374 Lockhart Road, Hong Kong",22.2791602,114.1794431,0.2930176616484911,Wanchai
Sheung Wan,"Shop No. 3, Ground Floor and Upper Ground Floor, Hollywood Terrace, No. 123 Hollywood Road, Hong Kong",24 Hours,,,22.2841043,114.1513376,"Shop No.1 G/F., & Open Yard Nos.10-16 Cochrane Street, Hong Kong",22.2831647,114.1546298,0.3548747425544555,Central
Quarry Bay,"Shop 5 & 6D, Ground Floor, Hoi Kwong Court, Nos.13-15 Hoi Kwong Street, Quarry Bay, Hong Kong",24 Hours,,,22.287844,114.211047,"No.16, G/F., Hoi Kwong Court, Nos. 13-15 Hoi Kwong Street, Hong Kong",22.287844,114.211047,0.0,Quarry Bay
Sheung Wan,"Shop No. 106, 1/F, Infinitus Plaza, No. 199 Des Voeux Road Central, Hong Kong",,Monday to Friday: 0700-2300,Saturday: 0700-2300,22.2864399,114.1536781,"Shop 11, 12 and 13, G/F., Western Market, 323 Des Voeux Road, Sheung Wan, Hong Kong",22.287287,114.150392,0.3513945138680125,Sheung Wan
Western,"Portion of Shop C, Ground Floor, Man Kwong Court, No. 12 Smithfield, Hong Kong",24 Hours,,,22.2821878,114.1284681,"Shop B2 & Shop C G/F., Luen Wai Apartments, Nos. 136, 136A, 138, 140 & 142 Belcher??s Street, Nos. 7 & 7A Davis Street, Hong Kong",22.2822362,114.1270344,0.1478494047396669,Sai Wan
Shau Kei Wan,"Shop No. 9, G/F, Hing Tung Shopping Centre, Hing Tung Estate, Yiu Hing Road, Shau Kei Wan, Hong Kong",,Monday to Friday: 0700-2330,Saturday: 0700-2330,22.2807126,114.2200446,"Shop B G/F., Nos 106-108 Shau Kei Wan Road, Hong Kong",22.2821321,114.2216237,0.2262549080771826,Shau Kei Wan
Central,"Ground Floor, No. 76 Wellington Street, Central, Kong Kong",24 Hours,,,22.2822906,114.1549376,"Shop No.1 G/F., & Open Yard Nos.10-16 Cochrane Street, Hong Kong",22.2831647,114.1546298,0.1018578739285655,Central
Central,Kiosk No. CEN K7b at Unpaid Concourse of MTR Central Station,,Monday to Friday: 0700-0000,Saturday: 0700-0000,22.2799907,114.1587983,Kiosk No. CEN E7 MTR Central Station,22.2819989,114.1576766,0.2506280725125144,Central
Aberdeen,"Shop No. G10, Ground Floor, One Island South, No. 2 Heung Yip Road, Wong Chuk Hang, Hong Kong",,Monday to Friday: 0700-2300,Saturday: 0700-2300,22.2485555,114.1689398,No. WCH 8 at MTR Wong Chuk Hang Station,22.24818,114.16835,0.0736563608882341,Wong Chuk Hang
North Point,"Shop No. 5, G/F, Island Lodge, No. 15 Kam Hong Street, North Point, Hong Kong",24 Hours,,,22.2923934,114.2016892,"G/F, No. 484 King’s Road, Hong Kong",22.2912043,114.2015413,0.1325532001055969,North Point
Central,"Shop Y2, G/F, Euro Trade Centre, Nos.13-14 Connaught Road Central & Nos. 21-23 Des Voeux Road Central, Hong Kong",,Monday to Friday: 0700-2300,Saturday: 0700-2300,22.282815,114.157614,Kiosk No. CEN E7 MTR Central Station,22.2819989,114.1576766,0.0906000826054342,Central
Wan Chai,"Ground Floor and Cockloft, No. 72 Thomson Road, Wan Chai, Hong Kong",24 Hours,,,22.2770565,114.1735458,"Shop E G/F. , Lee Wing Building, Nos. 156, 160 & 162 Hennessy Road, Nos. 7A & 7B O’Brien Road, Hong Kong",22.2774551,114.1735215,0.0442095755389096,Wanchai
Central,Shop No. HOK10 at MTR Hong Kong Station,,Monday to Friday: 0700-2300,Saturday: 0700-2300,22.284377,114.158056,Kiosk No. CEN E7 MTR Central Station,22.2819989,114.1576766,0.2662236487143253,Central
Sheung Wan,"Shop B, Ground Floor, No. 106 Jervois Street, Sheung Wan, Hong Kong",24 Hours,,,22.285316,114.1506912,"Shop 11, 12 and 13, G/F., Western Market, 323 Des Voeux Road, Sheung Wan, Hong Kong",22.287287,114.150392,0.2204242288919337,Sheung Wan
Central,"Shop C, G/F & Cockloft, Nos. 36, 36A & 36B Staunton Street, Nos. 63-63A Peel Street, Hong Kong",24 Hours,,,22.282406,114.1521434,"Shop No.1 G/F., & Open Yard Nos.10-16 Cochrane Street, Hong Kong",22.2831647,114.1546298,0.2696603403140972,Central
Sai Wan Ho,Shop No. SWH 8 at MTR Sai Wan Ho Station,,Monday to Friday: 0700-2300,Saturday: 0700-2300,22.2820984,114.2220997,"Shop B G/F., Nos 106-108 Shau Kei Wan Road, Hong Kong",22.2821321,114.2216237,0.0491967068522566,Shau Kei Wan
Chai Wan,"Shop 1C-1 in the Portion of Shop 1C of and Portion of Shop 2C, Level 5, Commercial Block, Greenwood Terrace, No. 16 Tai Man Street, Chai Wan, Hong Kong",24 Hours,,,22.2674969,114.2350149,"Shop 3A and Portion of Shop 3B on Level 5 of The Commercial Block,No. 16 Tai Man Street, Greenwood Terrace",22.26686,114.2351954,0.0729388332111506,Chai Wan
Tai Koo Shing,"Shop No. G901C, G/F, Nam Hoi Mansion (Tower 54), No. 2 Tai Wing Avenue, Tai Koo Shing, Hong Kong",,Monday to Friday: 0700-2300,Saturday: 0700-2300,22.286721,114.217477,"KIOSK NO. TAK9, Tai Koo MTR Station",22.28465,114.21636,0.2565990419167933,Taikoo
Causeway Bay,"Shop Nos. 22 & 26 at G/F & Living Quarter at 1/F, Block 6, Tsuen Wing Lau, Lai Tak Tsuen, Tai Hang, Hong Kong",24 Hours,,,22.2775917,114.1947926,KIOSK TIH 2 at Tin Hau MTR Station,22.2824215,114.1917258,0.6212320932635084,Tin Hau
Causeway Bay,"Shop No. 2, G/F, Yan Wo Yuet Building, Nos. 432-436 Hennessy Road, Causeway Bay, Hong Kong",24 Hours,,,22.2792596,114.1815795,"G/F & Cockloft, 5 Canal Road East, Hong Kong",22.2787376,114.1814101,0.0603820798450868,Wanchai
Wan Chai,"Shop No. 2, G/F, Fu Lok Building, Nos. 64, 66, 68, 70 and 70A Stone Nullah Lane, Wan Chai, Hong Kong",24 Hours,,,22.274132,114.174181,"Kiosk No.WAC4, Wanchai MTR II",22.276022,114.1751471,0.2317648606170368,Wanchai
Western,"Shop B, G/F, Ka Ming Building, No. 56 Belcher’s Street, Kennedy Town, Western, Hong Kong",,Monday to Friday: 0700-2330,Saturday: 0700-2330,22.2825522,114.12897,"Shop 2C on Ground Floor, Harbour View Garden Tower III, 2 Catchick Street, Hong Kong.",22.2833392,114.1293274,0.0946115364084548,Sai Wan
Central,"G/F, No. 41 D’Aguilar Street, Central, Hong Kong",,Monday to Friday: 0900-2300(mon-thu) 0900-0200(fri),Saturday: 0900-0200,22.2805998,114.1549962,"Shop E , G/F, No. 10 D’Aguilar Street, Yip Fung Building, Nos. 2, 4, 6, 8 & 10 D’Aguilar Street, Hong Kong",22.2813798,114.1562058,0.1516572568795147,Central
Central,"Concession No. HOK 23A, Level L3 at MTR Hong Kong Station",,Monday to Friday: 0700-0000,Saturday: 0700-0000,22.284377,114.158056,Kiosk No. CEN E7 MTR Central Station,22.2819989,114.1576766,0.2662236487143253,Central
Central,"Concession No. HOK 57, Level L3 at MTR Hong Kong Station",,Monday to Friday: 0700-2300,Saturday: 0700-2300,22.284377,114.158056,Kiosk No. CEN E7 MTR Central Station,22.2819989,114.1576766,0.2662236487143253,Central
Central,"Ground Floor, No. 41 Wyndham Street, Central, Hong Kong",24 Hours,,,22.2806209,114.1550014,"Shop E , G/F, No. 10 D’Aguilar Street, Yip Fung Building, Nos. 2, 4, 6, 8 & 10 D’Aguilar Street, Hong Kong",22.2813798,114.1562058,0.1498947693807277,Central
Wan Chai,"Shop No. 1 & No. 6, G/F, Fu Kar Building, Nos. 222-230 Johnston Road & Nos. 1A-1C Mallory Street, Wan Chai, Hong Kong",24 Hours,,,22.2775125,114.17661,"G/F., 89 Wan Chai Road, Hong Kong",22.276516,114.1750012,0.1991661726374657,Wanchai
Wan Chai,"Shops G & H, G/F, New Spring Garden Mansion, Nos. 49 & 51 Spring Garden Lane, Wan Chai, Hong Kong",24 Hours,,,22.2752812,114.1724387,"Shop 1, Ground Floor, 112 Johnston Road, Hong Kong",22.2765046,114.1730614,0.149904130338832,Wanchai
Western,"Shop C, G/F, Koon Wah Building, Nos. 420-424 Queen’s Road West, Sai Wan, Hong Kong",24 Hours,,,22.2863484,114.1387564,"G/F., Nos. 333 & 335 Des Voeux Road West, Hong Kong",22.2875596,114.1386087,0.1349821434305077,Sai Wan
Aberdeen,"Portion of Shop No. 4, G/F, South Wave Court, No. 3 Shum Wan Road, Wong Chuk Hang, Hong Kong",,Monday to Friday: 0700-2300,Saturday: 0700-2300,22.2448246,114.1660206,No. WCH 8 at MTR Wong Chuk Hang Station,22.24818,114.16835,0.4423930388469018,Wong Chuk Hang
Western,Concession No. KET 3 at MTR Kennedy Town Station,,Monday to Friday: 0700-2300,Saturday: 0700-2300,22.2812467,114.1288825,"Shop B2 & Shop C G/F., Luen Wai Apartments, Nos. 136, 136A, 138, 140 & 142 Belcher??s Street, Nos. 7 & 7A Davis Street, Hong Kong",22.2822362,114.1270344,0.2197287352886577,Sai Wan
Western,Concession No. KET 6 at MTR Kennedy Town Station,,Monday to Friday: 0700-0000,Saturday: 0700-0000,22.2812467,114.1288825,"Shop B2 & Shop C G/F., Luen Wai Apartments, Nos. 136, 136A, 138, 140 & 142 Belcher??s Street, Nos. 7 & 7A Davis Street, Hong Kong",22.2822362,114.1270344,0.2197287352886577,Sai Wan
Western,Concession No. HKU 3 at MTR Hong Kong University Station,,Monday to Friday: 0700-2300,Saturday: 0700-2300,22.2829989,114.1370848,"G/F., Nos. 333 & 335 Des Voeux Road West, Hong Kong",22.2875596,114.1386087,0.5288794132974671,Sai Wan
Western,Concession No. HKU 4 at MTR Hong Kong University Station,,Monday to Friday: 0700-0000,Saturday: 0700-0000,22.2829989,114.1370848,"G/F., Nos. 333 & 335 Des Voeux Road West, Hong Kong",22.2875596,114.1386087,0.5288794132974671,Sai Wan
Western,Concession No. SYP 3 at MTR Sai Ying Pun Station,,Monday to Friday: 0700-2300,Saturday: 0700-2300,22.285533,114.142733,"Shop A G/F., No. 64 Centre Street, Hong Kong",22.284929,114.142068,0.0957596575522874,Western District
Western,Concession No. SYP 4 at MTR Sai Ying Pun Station,,Monday to Friday: 0700-0000,Saturday: 0700-0000,22.285533,114.142733,"Shop A G/F., No. 64 Centre Street, Hong Kong",22.284929,114.142068,0.0957596575522874,Western District
Shau Kei Wan,"Shop No. 5B, G/F, iUniQ, No. 305 Shau Kei Wan Road, Shau Kei Wan, Hong Kong",24 Hours,,,22.2773645,114.2270455,"No. H1, G/F., Fung Yuen Building, Nos. 388-414 Shau Kei Wan Road, Hong Kong",22.2773645,114.2270455,0.0,Shau Kei Wan
Wan Chai,"Shop B, Ground Floor and Cockloft, Cheong Hong Mansion, Nos. 25-33 Johnston Road, Wan Chai, Hong Kong",24 Hours,,,22.2772256,114.170549,"G/F & M/F, 38 Hennessy Rd, Wanchai, H.K.",22.2773896,114.1704959,0.0189670152139964,Wanchai
Shau Kei Wan,"Shop No. 7, G/F, Hoi Fung Centre, No. 2 Po Man Street, Shau Kei Wan, Hong Kong",24 Hours,,,22.2784189,114.228787,"No. H1, G/F., Fung Yuen Building, Nos. 388-414 Shau Kei Wan Road, Hong Kong",22.2773645,114.2270455,0.2141144058657793,Shau Kei Wan
Sheung Wan,"Shop No. 7, G/F, Welland Building, No. 368 Queen's Road Central, Hong Kong",24 Hours,,,22.2858348,114.149091,"Shop 11, 12 and 13, G/F., Western Market, 323 Des Voeux Road, Sheung Wan, Hong Kong",22.287287,114.150392,0.2093673537358163,Sheung Wan
Chai Wan,"Shop Unit G58A, G/F, Paradise Mall, Heng Fa Chuen, Hong Kong",24 Hours,,,22.2767315,114.2399396,Kiosk No. HFC5 & 6 Heng Fa Chuen Station,22.276657,114.239691,0.0269162857482562,Heng Fa Chuen
Admiralty,Kiosk No. ADM 23 at MTR Admiralty Station,,Monday to Friday: 0700-0000,Saturday: 0700-0000,22.279412,114.164559,"Shop No. F01-02, Lab Concept, 1/F Queensway Plaza, 93 Queensway, Hong Kong",22.278565,114.164798,0.0969720689832749,Queensway
North Point,"Shop No. 6, G/F, Cloudview Road Dairy Farm Shopping Centre, No. 33 Cloudview Road, North Point, Hong Kong",,Monday to Friday: 0800-2200,Saturday: 0800-2200,22.2856587,114.1962596,"G/F., No. 22 Fort Street, Hong Kong",22.2896055,114.1969904,0.4434868831384216,North Point
North Point,"Portion A and Portion C2 on Ground Floor of No. 300 King's Road, and Ground Floor of No. 298 King's Road, Nos. 29-37 Cheung Hong Street, Continental Mansion, North Point, Hong Kong",24 Hours,,,22.2901835,114.195742,"Unit No. 5, G/F., Block 1, 2 & 3 City Garden, No. 233 Electric Road, Hong Kong",22.2912167,114.1950775,0.1333374626031105,North Point
North Point,"Shop No. 2, G/F, Union Park Tower, No. 168 Electric Road, North Point, Hong Kong",24 Hours,,,22.2874868,114.1921686,"Shop Nos. 9 & 9A, G/F., Kam Tao Building, 2-10B Whitfield Road, Hong Kong",22.2867373,114.1909836,0.1476515172808048,Tin Hau
Southern,Concession No. OCP 3 at MTR Ocean Park Station,,Monday to Friday: 0700-1900,Saturday: 0700-1900,22.2486966,114.1744429,Concession No. OCP 5 at MTR Ocean Park Station,22.2486966,114.1744429,0.0,Wong Chuk Hang
Southern,Concession No. WCH 3 at MTR Wong Chuk Hang Station,,Monday to Friday: 0700-0000,Saturday: 0700-0000,22.2459198,114.1664957,No. WCH 8 at MTR Wong Chuk Hang Station,22.24818,114.16835,0.314923444222261,Wong Chuk Hang
Aberdeen,Concession No. SOH 1 at MTR South Horizons Station,,Monday to Friday: 0700-0000,Saturday: 0700-0000,22.2428603,114.1487444,"Shop No. 2, G/F., East Commercial Block of South Horizons, No. 18A South Horizon Drive, Apleichau, Hong Kong",22.2433943,114.1483479,0.0718831435486968,AP Lei Chau
North Point,"Portion of G/F, No. 129 Electric Road, North Point, Hong Kong",24 Hours,,,22.2888313,114.1933902,"Shop No.25-27, G/F., King's Centre, 193-209 King's Road, Hong Kong",22.2893806,114.1942585,0.1081963284472914,North Point
Aberdeen,"Shop No. 1, G/F, Noble Square, Wah Kwai Shopping Centre, Wah Kwai Estate, No. 3 Wah Kwai Road, Aberdeen, Hong Kong",24 Hours,,,22.2498464,114.139108,"Shop 7 & 8, Town Ctr, Wah Fu Est, H.K.",22.2516355,114.1379788,0.2297768201192939,Aberdeen
Wong Chuk Hang,"Convenient Store on First Floor of Gleneagles Hong Kong Hospital, No.1 Nam Fung Path, Hong Kong",,Monday to Friday: 0700-2000,Saturday: 0700-1900,22.2515672,114.1763966,"G/F., Main Block, Grantham Hospital, 125 Wong Chuk Hang Road, Aberdeen, Hong Kong",22.2510972,114.1732155,0.3320098176377918,Aberdeen
Stanley,"Shop A, Ground Floor, No. 90A Stanley Main Street, Hong Kong",,Monday to Friday: 0800-2300,Saturday: 0800-2300,22.2186952,114.2113797,Concession No. OCP 5 at MTR Ocean Park Station,22.2486966,114.1744429,5.053392892758944,Wong Chuk Hang
Aberdeen,"Portion 6 of Shops A, B & G on Ground Floor of Albert House, 20,22,24 & 28 Chengtu Road & No.12 Sai On Street, Aberdeen, Hong Kong",24 Hours,,,22.2481534,114.1548009,"Ground Floor, No. 23 Tung Sing Road, Hong Kong",22.2487125,114.1551595,0.072106882419383,Aberdeen
Central,Concession HOK 83 at In-Town Check-In Concourse of MTR Hong Kong Station,,Monday to Friday: 0700-2200,Saturday: 0700-2200,22.2846133,114.1579795,Kiosk No. CEN E7 MTR Central Station,22.2819989,114.1576766,0.2911813141353164,Central
Chai Wan,"Shop No. G18, G/F, Commercial/Car Park Block (also known as Wan Tsui Estate Market Building), Wan Tsui Estate, 1 Wah Ha Street, Chai Wan Hong Kong",24 Hours,,,22.262314,114.2384553,"KIOSK No. CHW12 at Chai Wan Station, Chai Wan (Exit C)",22.264625,114.237139,0.289645615984361,Chai Wan
Tai Koo Shing,"Shop No. 50A, 4/F, Kornhill Plaza, 2 Kornhill Road, Hong Kong",,Monday to Friday: 0700-0000,Saturday: 0700-0000,22.2841574,114.2164407,"KIOSK NO. TAK9, Tai Koo MTR Station",22.28465,114.21636,0.0551779758186644,Taikoo
North Point,"G/F, 92 Java Road, North Point, Hong Kong",24 Hours,,,22.2919937,114.1994292,"Shop No.4, G/F., Cheong Yuen Apartments, Nos.2,4,6,8,8A Tsat Tsz Mui Road, North Point",22.2906342,114.2007566,0.2034068128405297,North Point
Wan Chai,"Shop A1, G/F, Tak Lee Commercial Building, 113 – 117 Wanchai Road, HK",,Monday to Friday: 0700-2300,Saturday: 0700-2300,22.276563,114.1755877,"G/F., 89 Wan Chai Road, Hong Kong",22.276516,114.1750012,0.0606687745086433,Wanchai
Causeway Bay,"Shop No. 4, G/F, Causeway Bay Centre, Nos. 15 – 23 Sugar Street, Hong Kong",24 Hours,,,22.2800677,114.1866883,"G/F., 33 Jardine's Bazaar, Hong Kong",22.2795144,114.1849559,0.1887586747643288,Causeway Bay
Chai Wan,"Shop No.403, Level 4, Hing Man Shopping Centre (forming part of the Commercial/Car Park Block), Hing Man Estate, No. 188 Tai Tam Road, Chai Wan, Hong Kong",24 Hours,,,22.2664679,114.2325717,"Shop 3A and Portion of Shop 3B on Level 5 of The Commercial Block,No. 16 Tai Man Street, Greenwood Terrace",22.26686,114.2351954,0.2738829509342078,Chai Wan
Sai Wan,"G/F with the Yard, 73 First Street & Basement Floor with a lavatory at the rear of the yard on the G/F 73 First Street",,Monday to Friday: 0700-0000,Saturday: 0700-0000,22.2868044,114.1420853,"G/F., No. 232 Des Voeux Road West, Hong Kong",22.287784,114.142217,0.1093209417850082,Sai Wan
Fortress Hill,"Shop No.1, Ground Floor, Harbour East, 218 Electric Road, Hong Kong",24 Hours,,,22.2885537,114.1931439,"Shop No.25-27, G/F., King's Centre, 193-209 King's Road, Hong Kong",22.2893806,114.1942585,0.1468927581616217,North Point
Wan Chai,"Shop E & F, G/F & Cockloft, 104 Johnston Road, Wanchai, HK",,Monday to Friday: 0700-2300,Saturday: 0700-2300,22.2763134,114.1728832,"Shop 1, Ground Floor, 112 Johnston Road, Hong Kong",22.2765046,114.1730614,0.0280278012429163,Wanchai
Sai Wan,"Ground Floor, Whitty Street Court, No.28 Whitty Street, Hong Kong",24 Hours,,,22.2861076,114.1363724,"G/F., Nos. 333 & 335 Des Voeux Road West, Hong Kong",22.2875596,114.1386087,0.2810035084945094,Sai Wan
Central,"Shop B, Upper Ground Floor, Al Aqmar House, 30 Hollywood Road, Central, Hong Kong",,Monday to Friday: 0700-2300,Saturday: 0700-2300,22.2820287,114.1535798,"Shop No.1 G/F., & Open Yard Nos.10-16 Cochrane Street, Hong Kong",22.2831647,114.1546298,0.1659317044453986,Central
Western,"Shop B, G/F, Luen Hong Apartment, 116-122A Belcher’s Street, Kennedy Town, Hong Kong",24 Hours,,,22.2822611,114.1274462,"Shop B2 & Shop C G/F., Luen Wai Apartments, Nos. 136, 136A, 138, 140 & 142 Belcher??s Street, Nos. 7 & 7A Davis Street, Hong Kong",22.2822362,114.1270344,0.0425281693457007,Sai Wan
Western,"Shop A1, G/F, Smithfield Walk, Luen Tak, Luen Hing, Luen Fat and Luen On Apartments, No. 45-51 Smithfield Road and Nos. 34-40 Forbes Street, Kennedy Town, Hong Kong",,Monday to Friday: 0700-2300,Saturday: 0700-2300,22.2815634,114.1274462,"Shop B2 & Shop C G/F., Luen Wai Apartments, Nos. 136, 136A, 138, 140 & 142 Belcher??s Street, Nos. 7 & 7A Davis Street, Hong Kong",22.2822362,114.1270344,0.085741382271401,Sai Wan
Causeway Bay,"G/F, 511 Lockhart Road, Causeway Bay, Hong Kong",24 Hours,,,22.2808039,114.1834336,"Shop B on Ground Floor, Po Hon Building, 24-30 Percival Street, Hong Kong",22.2806683,114.1825387,0.0934406688776341,Causeway Bay
Wan Chai,"Shop 102A and 102B, 1/F, Shopping Arcade of Convention Plaza, 1 Harbour Road, Wanchai, Hong Kong",,Monday to Friday: 0700-2300,Saturday: 0700-2300,22.2809167,114.1737553,"Shop A, G/F., Nos. 146 Lockhart Road, Hong Kong",22.2780541,114.1729075,0.328808486172448,Wanchai
Causeway Bay,"Shop J, G/F, Po Ming Building, 49-57 Lee Garden Road, Causeway Bay, Hong Kong",24 Hours,,,22.2784909,114.1835534,"Shop No.K G/F., Po Ming Building, 2-6 Foo Ming Street,49-57 Lee Garden Road, 96-106 Percival Street, Hong Kong",22.2784909,114.1835534,0.0,Causeway Bay
Wan Chai,"Shop 1A-1B, 1/F, Lippo Centre, No. 89 Queensway, Admiralty, Hong Kong",,Monday to Friday: 0700-2100,Saturday: 0800-1900,22.2794384,114.1633418,"Shop No. F01-02, Lab Concept, 1/F Queensway Plaza, 93 Queensway, Hong Kong",22.278565,114.164798,0.1785389315095071,Queensway
Quarry Bay,"Shop 1A&1B, G/F, Bo Fung Garden, Nos. 1090 – 1091 King’s Road, Quarry Bay, Hong Kong",24 Hours,,,22.28445,114.214063,"Portion and Toilet Portion of Shop No.G7 on Ground Floor of Westlands Gardens, Nos. 1025-1037 King’s Road, Nos. 2-10,12A-12H Westlands Road, Hong Kong",22.284902,114.2129603,0.1241728487397169,Quarry Bay
Quarry Bay,"Shop A1 on Ground Floor, Riviera Mansion, No. 2A Hoi Wan Street & Nos. 18, 20, 22 Hoi Tai Street, Quarry Bay, Hong Kong",,Monday to Friday: 0700-2300,Saturday: 0700-1900,22.288134,114.2114186,"No.16, G/F., Hoi Kwong Court, Nos. 13-15 Hoi Kwong Street, Hong Kong",22.287844,114.211047,0.0499768855541667,Quarry Bay
Central,"G/F and Basement, Tung Ming Building, 40-42 Des Voeux Road Central, Central, Hong Kong",24 Hours,,,22.283155,114.156625,Kiosk No. CEN E7 MTR Central Station,22.2819989,114.1576766,0.1677318493693618,Central
Central,"Portion B (Including a Lavatory) on Ground Floor, Hung Tak Building, No. 106 Des Voeux Road Central, Hong Kong",,Monday to Friday: 0700-2300,Saturday: 0700-2300,22.2848717,114.1552239,"Shop No.1 G/F., & Open Yard Nos.10-16 Cochrane Street, Hong Kong",22.2831647,114.1546298,0.1986913907763679,Central
North Point,"Shop No. 2 and Shop No, 9 on Ground Floor, Coronet Court, Nos. 321-333 King’s Road & Nos. 1, 3, 5, 7, 7A, 9 & 9A North Point Road, Hong Kong",,Monday to Friday: 0700-0000,Saturday: 0700-0000,22.2906419,114.1964877,"G/F., No. 22 Fort Street, Hong Kong",22.2896055,114.1969904,0.1259150756911222,North Point
North Point,"Shop 8&25, G/F, Golden Court, Nos. 22-52 Electric Road, Nos. 1A – 1C Lau Sin Street, Nos. 2 – 8 Yacht Road, Hong Kong",,Monday to Friday: 0700-2300,Saturday: 0700-2300,22.2833639,114.1919131,"Shop H, G/F., Kiu Hing Mansion, 14 King's Road, Hong Kong",22.2829732,114.1925625,0.0796909393075892,Tin Hau
North Point,"Shop 6A, G/F., Olympia Plaza, 243-255 King's Rd, North Point, HK",,Monday to Friday: 0700-2300,Saturday: 0700-2300,22.2897265,114.1944613,"Shop No.25-27, G/F., King's Centre, 193-209 King's Road, Hong Kong",22.2893806,114.1942585,0.0436334270778148,North Point
Causeway Bay,"Ground Floor and Mezzanine Floor, No. 463 Hennessy Road, Hong Kong",24 Hours,,,22.279859,114.182094,"Shop B on Ground Floor, Po Hon Building, 24-30 Percival Street, Hong Kong",22.2806683,114.1825387,0.1006558584796846,Causeway Bay
Western,"Shop 5 on Ground Floor, Hau Wo Building, No. 52 Hau Woo Street, Hong Kong",24 Hours,,,22.2826576,114.1270049,"Shop B2 & Shop C G/F., Luen Wai Apartments, Nos. 136, 136A, 138, 140 & 142 Belcher??s Street, Nos. 7 & 7A Davis Street, Hong Kong",22.2822362,114.1270344,0.0467622813204831,Sai Wan
North Point,"Shop G21, G/F., No. 252-264 King’s Road, North Point, HK",,Monday to Friday: 0700-2300,Saturday: 0700-2300,22.2889691,114.1944964,"Shop No.25-27, G/F., King's Centre, 193-209 King's Road, Hong Kong",22.2893806,114.1942585,0.0517435433975126,North Point
Happy Valley,"G/F and Cockloft together with the Yard on G/F of Winner House, No. 15 Wong Nai Chung Road, Hong Kong",24 Hours,,,22.2695641,114.1841804,"Shop B, G/F., The Exterior Elevations, Holley Mansion, Nos. 21-23 Wong Nai Chung Road, Hong Kong",22.2696221,114.1843662,0.0201979647385882,Happy Valley
Shau Kei Wan,"Shop C, G/F & M/F, Ellen Building, Nos. 192-198 Shau Kei Wan Road, Hong Kong",24 Hours,,,22.2806596,114.2234591,"Shop B G/F., Nos 106-108 Shau Kei Wan Road, Hong Kong",22.2821321,114.2216237,0.2497306617668546,Shau Kei Wan
Quarry Bay,"Shop No. 12, Block C2, Model Housing Estate, No. 774 King's Road, North Point, Hong Kong",,Monday to Friday: 0700-0000,Saturday: 0700-0000,22.290574,114.208941,KIOSK QUB3 at Quarry Bay MTR Station,22.28800384,114.2097574,0.2967790985701705,Quarry Bay
Apleichau,"Shop Nos. 6-9, G/F, Ning Fung Mansion, Nos. 25-31 Main Street, Ap Lei Chau, Hong Kong",24 Hours,,,22.244235,114.156974,"Ground Floor, No. 85 Main Street Ap Lei Chau, Hong Kong",22.2438216,114.1553876,0.1698196292565744,Ap Lei Chau
Wan Chai,"Shop No. G6, G/F, Harbour Centre, No. 25 Harbour Road, Wan Chai, Hong Kong",24 Hours,,,22.2810988,114.1755924,"Shop A, G/F., Nos. 146 Lockhart Road, Hong Kong",22.2780541,114.1729075,0.4361598021929186,Wanchai
Sheung Wan,"G/F, Block B, Hillier Commercial Building, Nos. 89 & 91 Wing Lok Street, Hong Kong",24 Hours,,,22.2859651,114.1517966,"Shop 11, 12 and 13, G/F., Western Market, 323 Des Voeux Road, Sheung Wan, Hong Kong",22.287287,114.150392,0.2058619737150868,Sheung Wan
Causeway Bay,"Shop No. 3, G/F, Professional Building, Nos. 19-23 Tung Lo Wan Road, Causeway Bay, Hong Kong",,Monday to Friday: 0700-0000,Saturday: 0700-0000,22.2787415,114.1885344,"G/F., 33 Jardine's Bazaar, Hong Kong",22.2795144,114.1849559,0.3785968570863863,Causeway Bay
Shau Kei Wan,"Shop Nos. 23-28, G/F, Tai On Court, Nos. 62-74 Shau Kei Wan Main Street East, Shau Kei Wan, Hong Kong",24 Hours,,,22.2793882,114.2298737,"Shop B G/F., The Eastborne, No. 51 Shau Kei Wan Main Street East, Hong Kong",22.2803075,114.2305921,0.1258741032443733,Shau Kei Wan
Sheung Wan,"Shop No. G01, G/F, Shun Tak Centre, Nos. 168-200 Connaught Road Central, Hong Kong",,Monday to Friday: 0700-0000,Saturday: 0700-0000,22.2879098,114.1517914,"Shop 11, 12 and 13, G/F., Western Market, 323 Des Voeux Road, Sheung Wan, Hong Kong",22.287287,114.150392,0.1598538931446295,Sheung Wan
Wan Chai,"Shop No. 2, G/F, Dannies House, No. 20 Luard Road, Wan Chai, Hong Kong",24 Hours,,,22.2786884,114.1719192,"G/F., Warner Building, 91 Hennessy Road, Hong Kong",22.277742,114.171826,0.1052379523636391,Wanchai
Chai Wan,"Shop Nos. 3 & 4, Yue Fung House, Yue Wan Estate, Chai Wan, Hong Kong",24 Hours,,,22.2657544,114.2409612,"KIOSK No. CHW12 at Chai Wan Station, Chai Wan (Exit C)",22.264625,114.237139,0.4133252372559993,Chai Wan
Apleichau,"Shop No. 6, G/F, Commercial/Car Park Block, Ap Lei Chau Estate, Nos. 322, 326, 328, 330 and 332 Ap Lei Chau Bridge Road, Hong Kong",24 Hours,,,22.2450255,114.1485708,"Shop No. 2, G/F., East Commercial Block of South Horizons, No. 18A South Horizon Drive, Apleichau, Hong Kong",22.2433943,114.1483479,0.1820842242838407,AP Lei Chau
Western,"Shop C on G/F & Cockloft B of GOA Building, Nos. 20-24 Hill Road, Hong Kong",24 Hours,,,22.2857336,114.1349012,"G/F., Nos. 333 & 335 Des Voeux Road West, Hong Kong",22.2875596,114.1386087,0.4322762456876279,Sai Wan
Shau Kei Wan,"G/F, Kam Wai Building, No. 18 Kam Wa Street, Shau Kei Wan, Hong Kong",24 Hours,,,22.2777238,114.2297389,"No. H1, G/F., Fung Yuen Building, Nos. 388-414 Shau Kei Wan Road, Hong Kong",22.2773645,114.2270455,0.2804187160523197,Shau Kei Wan
Chai Wan,"Shop No. 120, Level 1, New Jade Shopping Arcade, Chai Wan, Hong Kong",24 Hours,,,22.2639913,114.2370739,"KIOSK No. CHW12 at Chai Wan Station, Chai Wan (Exit C)",22.264625,114.237139,0.070492111664593,Chai Wan
Southern,"Shop B, G/F, Beach Centre, No. 33 Beach Road, Repulse Bay, Hong Kong",24 Hours,,,22.2375611,114.1966735,Concession No. OCP 5 at MTR Ocean Park Station,22.2486966,114.1744429,2.602328157275475,Wong Chuk Hang
Central,"G/F, No. 89 Caine Road, Hong Kong",24 Hours,,,22.2819464,114.1515606,"Shop No. 28A G/F., Lily Court,? 28A Robinson Road, HK",22.2794066,114.1521066,0.2868162376119301,Central
Wan Chai,"Shop A, G/F, No. 151 Lockhart Road, Wan Chai, Hong Kong",24 Hours,,,22.2783779,114.1733405,"Shop A, G/F., Nos. 146 Lockhart Road, Hong Kong",22.2780541,114.1729075,0.0572450893616022,Wanchai
Aberdeen,"Shop No. 24A, Commercial Complex, Wah Fu (II) Estate, Aberdeen, Hong Kong",24 Hours,,,22.2532466,114.1361475,"Shop 30, Wah Fu (II) Commercial Complex, Wah Fu (II) Estate, Hong Kong",22.253079,114.136107,0.0190226985137455,Aberdeen
Wan Chai,"Portion of Shop Nos. A, B & G, G/F, Sun Tao Building, Nos. 12-18 Morrison Hill Road, Wan Chai, Hong Kong",24 Hours,,,22.2773941,114.1798611,"Shop G4B G/F., Pak Ling Building, 368-374 Lockhart Road, Hong Kong",22.2791602,114.1794431,0.200255826752021,Wanchai
Wan Chai,"Shop C, G/F, Siu Fung Building, Nos. 9-17 Tin Lok Lane, Wan Chai, Hong Kong",24 Hours,,,22.2782514,114.179954,"Shop G4B G/F., Pak Ling Building, 368-374 Lockhart Road, Hong Kong",22.2791602,114.1794431,0.1135770891366793,Wanchai
Sai Wan Ho,"Shop E, G/F, Hing Cheung Building, Nos. 15-31 Shau Kei Wan Road, Hong Kong",24 Hours,,,22.2836643,114.2209742,"Shop B G/F., Nos 106-108 Shau Kei Wan Road, Hong Kong",22.2821321,114.2216237,0.18239273193087,Shau Kei Wan
Apleichau,"Shop No. G47, G/F, Marina Square West Commercial Block, South Horizons, Ap Lei Chau, Hong Kong",24 Hours,,,22.2437937,114.1468214,"Shop No. 2, G/F., East Commercial Block of South Horizons, No. 18A South Horizon Drive, Apleichau, Hong Kong",22.2433943,114.1483479,0.1634560987197406,AP Lei Chau
Chai Wan,"Shop Nos. 9,14,14A, 21 & 22, G/F, Fullview Garden, Siu Sai Wan, Hong Kong",24 Hours,,,22.2626752,114.2518599,"Shop No.401 Siu Sai Wan Shopping Centre, Chai Wan, Hong Kong",22.262778,114.2489902,0.2960014224160583,Siu Sai Wan
Western,"Shop C, G/F, Tin Hing Mansion, Nos. 295-305 Des Voeux Road West, Hong Kong",,Monday to Friday: 0700-2300,Saturday: 0700-2300,22.2878376,114.1395461,"G/F., Nos. 333 & 335 Des Voeux Road West, Hong Kong",22.2875596,114.1386087,0.1013878998019384,Sai Wan
Wan Chai,"Shop No. G4, G/F, CLI Building, Nos. 313-317B Hennessy Road, Nos. 314-318 Lockhart Road, Wan Chai, Hong Kong",24 Hours,,,22.2786166,114.1781891,"Shop G4B G/F., Pak Ling Building, 368-374 Lockhart Road, Hong Kong",22.2791602,114.1794431,0.1425671416533407,Wanchai
Aberdeen,"The Convenience Shop, G/F, Block K, Queen Mary Hospital, No. 102 Pokfulam Road, Hong Kong",24 Hours,,,22.2711238,114.1309546,"Shop B2 & Shop C G/F., Luen Wai Apartments, Nos. 136, 136A, 138, 140 & 142 Belcher??s Street, Nos. 7 & 7A Davis Street, Hong Kong",22.2822362,114.1270344,1.295149490274608,Sai Wan
Wan Chai,"Shop B, G/F, Allied Kajima Building, No. 138 Gloucester Road, Wan Chai, Hong Kong",24 Hours,,,22.2792687,114.176401,"Shop G4B G/F., Pak Ling Building, 368-374 Lockhart Road, Hong Kong",22.2791602,114.1794431,0.3137452614762004,Wanchai
Shau Kei Wan,"Shop No. S1, G/F, Yiu Tung Shopping Centre, Yiu Tung Estate, No. 12 Yiu Hing Road, Shau Kei Wan, Hong Kong",24 Hours,,,22.2773529,114.2242,"No. H1, G/F., Fung Yuen Building, Nos. 388-414 Shau Kei Wan Road, Hong Kong",22.2773645,114.2270455,0.2932604559940201,Shau Kei Wan
North Point,"Shop B, G/F, Siu King Building, Nos. 14-16 Tsat Tsz Mui Road, North Point, Hong Kong",24 Hours,,,22.2905633,114.2011319,"Shop No.4, G/F., Cheong Yuen Apartments, Nos.2,4,6,8,8A Tsat Tsz Mui Road, North Point",22.2906342,114.2007566,0.0394636746725643,North Point
North Point,"G/F, No. 98 Electric Road, North Point, Hong Kong",24 Hours,,,22.2849246,114.1917222,"Shop Nos. 9 & 9A, G/F., Kam Tao Building, 2-10B Whitfield Road, Hong Kong",22.2867373,114.1909836,0.2146747245320213,Tin Hau
Happy Valley,"Shop 3, UG/F, Kam Kwong Mansion, Nos. 36-44 King Kwong Street, Happy Valley, Hong Kong",,Monday to Friday: 0700-2300,Saturday: 0700-2300,22.2688956,114.1842733,"Shop B, G/F., The Exterior Elevations, Holley Mansion, Nos. 21-23 Wong Nai Chung Road, Hong Kong",22.2696221,114.1843662,0.0810159844742639,Happy Valley
Central,"G/F, The Chinese Bank Building, No. 2A Pottinger Street, Nos. 61-65 Des Voeux Road Central, Central, Hong Kong",24 Hours,,,22.2836623,114.1568012,Kiosk No. CEN E7 MTR Central Station,22.2819989,114.1576766,0.2051015573599189,Central
Central,"Shop No. 7, G/F, Fairview Height, No. 1 Seymour Road, Hong Kong",24 Hours,,,22.2801403,114.1507578,"Shop No. 28A G/F., Lily Court,? 28A Robinson Road, HK",22.2794066,114.1521066,0.1610070597798686,Central
Aberdeen,"Convenience Store on Residential Complex of The University of Hong Kong, No.6 Sassoon Road, Pokfulam, Hong Kong",,Monday to Friday: 0700-2200,Saturday: 0700-2200,22.2829989,114.1370848,"G/F., Nos. 333 & 335 Des Voeux Road West, Hong Kong",22.2875596,114.1386087,0.5288794132974671,Sai Wan
Chai Wan,"Convenience Store at G/F, Main Block, Pamela Youde Nethersole Hospital, No. 3 Lok Man Road, Chai Wan, Hong Kong",24 Hours,,,22.2695993,114.2362653,KIOSK CHW11 Chai Wan MTR Station,22.2678103,114.2360778,0.1990433209360817,Chai Wan
Causeway Bay,"G/F, No. 16 Matheson Street, Causeway Bay, Hong Kong",24 Hours,,,22.277847,114.182729,"Shop No.K G/F., Po Ming Building, 2-6 Foo Ming Street,49-57 Lee Garden Road, 96-106 Percival Street, Hong Kong",22.2784909,114.1835534,0.1109167119556249,Causeway Bay
Western,"Shop A, G/F, Kaiser Centre, No. 18 Centre Street, Sai Ying Pun, Hong Kong",24 Hours,,,22.2875521,114.1421936,"G/F., No. 232 Des Voeux Road West, Hong Kong",22.287784,114.142217,0.025792230286723,Sai Wan
Tai Koo Shing,"Shop No. G14, G/F, Fu Shan Mansion, Stage III, Tai Koo Shing, Hong Kong",24 Hours,,,22.2859339,114.2183984,"KIOSK NO. TAK9, Tai Koo MTR Station",22.28465,114.21636,0.2536542081633716,Taikoo
Central,"G/F, No. 27 Caine Road, Hong Kong",24 Hours,,,22.2802297,114.1538673,"Shop No. 28A G/F., Lily Court,? 28A Robinson Road, HK",22.2794066,114.1521066,0.203059850564045,Central
Aberdeen,"Shop No. 102, 1/F, Tin Wan Shopping Centre, Tin Wan Estate, Nos. 15, 17 and 26 Tin Wan Street, Aberdeen, Hong Kong",24 Hours,,,22.2509945,114.1493839,"Shop Nos. 3 & 4, G/F., Silver Mansion, 81 Shek Pai Wan Road, Aberdeen, Hong Kong",22.2493714,114.1487427,0.1914995108393505,Aberdeen
Chai Wan,"Shop No. 47 & 48, Harmony Garden, No. 9 Siu Sai Wan Road, Chai Wan, Hong Kong",24 Hours,,,22.2657942,114.2485694,"Shop No.18 G/F., Island Resort Mall, 28 Siu Sai Wan Road, Siu Sai Wan, Hong Kong",22.266226,114.2508984,0.2447622438845965,Siu Sai Wan
Central,"Concession HOK 30 at MTR Hong Kong Station (Tung Chung Line Concourse, Lantau Airport Railway)",,Monday to Friday: 0700-0000,Saturday: 0700-0000,22.284377,114.158056,Kiosk No. CEN E7 MTR Central Station,22.2819989,114.1576766,0.2662236487143253,Central
North Point,"Shop C, D, E and F, G/F, Loong Wan Building, No. 8 North Point Road, North Point, Hong Kong",24 Hours,,,22.2909321,114.1968592,"G/F., No. 22 Fort Street, Hong Kong",22.2896055,114.1969904,0.1475208736772314,North Point
Central,"Shop C, G/F, Haleson Building, No. 1 Jubilee Street, Central, Hong Kong",24 Hours,,,22.2841436,114.1548597,"Shop No.1 G/F., & Open Yard Nos.10-16 Cochrane Street, Hong Kong",22.2831647,114.1546298,0.1109566547188367,Central
Central,"Shop D, G/F & C/L, Yip Fung Building, No. 8 D' Aguilar Street, Central, Hong Kong",24 Hours,,,22.2813798,114.1562058,"Shop E , G/F, No. 10 D’Aguilar Street, Yip Fung Building, Nos. 2, 4, 6, 8 & 10 D’Aguilar Street, Hong Kong",22.2813798,114.1562058,0.0,Central
Wan Chai,"Shop C, G/F, Jade House, Nos. 11-15 Fleming Road, Wan Chai, Hong Kong",24 Hours,,,22.2775699,114.1750077,"G/F., 89 Wan Chai Road, Hong Kong",22.276516,114.1750012,0.1167045169189485,Wanchai
Chai Wan,"Shop No. 3, G/F, Hing Wah Plaza, Hing Wah (I) Estate, No. 11 Wan Tsui Road, Chai Wan, Hong Kong",24 Hours,,,22.2627217,114.2357446,"KIOSK No. CHW12 at Chai Wan Station, Chai Wan (Exit C)",22.264625,114.237139,0.2550988107542565,Chai Wan
Aberdeen,"Shop Nos. 401 & 401A, Fourth Floor, Chi Fu Landmark, Chi Fu Fa Yuen, Pokfulam, Hong Kong",24 Hours,,,22.2578562,114.1387601,"Shop NO.503 Stalls 7-8 on Fifth Floor, Chi Fu Landmark, Pokfulam, HK",22.2578562,114.1387601,0.0,Pok Fu lam
Aberdeen,"Shop No. 25, G/F, Aberdeen Centre, Site 2, Nos. 7-11 Nam Ning Street, Aberdeen, Hong Kong",24 Hours,,,22.2487869,114.1538679,"Ground Floor, No. 23 Tung Sing Road, Hong Kong",22.2487125,114.1551595,0.1333941949621022,Aberdeen
Western,"Shop E, G/F, Tai Hing Building, No. 125 Des Voeux Road West, Hong Kong",24 Hours,,,22.2880153,114.144516,"Shops D & H, G/F., Sea View Mansion, No. 82, 83, 84, 86, 87 Connaught Road West, Nos. 21, 23, 25, 27 Sutherland Street, Hong Kong",22.2881338,114.1461184,0.1656515371618894,Sheung Wan
Happy Valley,"Shop Nos. 1 & 2, G/F, Happy Court, Nos. 39E, 39F & 39G Sing Woo Road and No. 6 Yuen Yuen Street, Happy Valley, Hong Kong",24 Hours,,,22.2690825,114.186131,"Shop B, G/F., The Exterior Elevations, Holley Mansion, Nos. 21-23 Wong Nai Chung Road, Hong Kong",22.2696221,114.1843662,0.1914539164438277,Happy Valley
Causeway Bay,"Shop No. 7, G/F, Malahon Apartments, Nos. 501-515 Jaffe Road, Causeway Bay, Hong Kong",24 Hours,,,22.2811665,114.1831115,"Shop B on Ground Floor, Po Hon Building, 24-30 Percival Street, Hong Kong",22.2806683,114.1825387,0.0807971441975464,Causeway Bay
Shau Kei Wan,"Shop No. 5, G/F, Aldrich Garden, No. 2 Oi Lai Street, Shau Kei Wan, Hong Kong",24 Hours,,,22.2810547,114.228604,"Shop No.14 G/F., Oi Tung Shopping Centre, Shau Kei Wan",22.2808612,114.2277794,0.0876408933225121,Shau Kei Wan
Quarry Bay,"Shop No. G5, G/F, Fok Cheong Building, Nos. 1032-1044 King's Road, Quarry Bay, Hong Kong",24 Hours,,,22.2845311,114.2124335,"Portion and Toilet Portion of Shop No.G7 on Ground Floor of Westlands Gardens, Nos. 1025-1037 King’s Road, Nos. 2-10,12A-12H Westlands Road, Hong Kong",22.284902,114.2129603,0.0680747598862728,Quarry Bay
Quarry Bay,"G/F, No. 963A King's Road, Quarry Bay, Hong Kong",24 Hours,,,22.288057,114.2102607,KIOSK QUB3 at Quarry Bay MTR Station,22.28800384,114.2097574,0.052199221542677,Quarry Bay
North Point,Kiosk FOH 9 at MTR Fortress Hill Station,,Monday to Friday: 0700-0000,Saturday: 0700-0000,22.2879969,114.1935635,"Shop No.25-27, G/F., King's Centre, 193-209 King's Road, Hong Kong",22.2893806,114.1942585,0.1691355319045536,North Point
North Point,Kiosk NOP 1 at MTR North Point Station,,Monday to Friday: 0700-0000,Saturday: 0700-0000,22.2912707,114.2004947,"Shop No.4, G/F., Cheong Yuen Apartments, Nos.2,4,6,8,8A Tsat Tsz Mui Road, North Point",22.2906342,114.2007566,0.0754728864968069,North Point
Wan Chai,"G/F, No. 64 Lockhart Road, Wan Chai, Hong Kong",,Monday to Friday: 0700-2300,Saturday: 0700-2300,22.2779443,114.1710594,"Flat B G/F., Sun Hey Mansion, 68-76 Hennessy Road, Hong Kong",22.277339,114.1711038,0.0671833256056956,Wanchai
North Point,"Portion B, Shop No. 1, G/F, On Ning Building, Nos. 425-431 King's Road, North Point, Hong Kong",24 Hours,,,22.2914324,114.2004585,"Shop No.4, G/F., Cheong Yuen Apartments, Nos.2,4,6,8,8A Tsat Tsz Mui Road, North Point",22.2906342,114.2007566,0.0935741421930655,North Point
North Point,"Shop No. G6, G/F, Provident Square, Nos. 21-53 Wharf Road, North Point, Hong Kong",,Monday to Friday: 0700-2300,Saturday: 0700-2300,22.2921837,114.1952802,"Unit No. 5, G/F., Block 1, 2 & 3 City Garden, No. 233 Electric Road, Hong Kong",22.2912167,114.1950775,0.1090983122170387,North Point
Wan Chai,"Shop Nos. 1 & 2, G/F, No. 99 Hennessy Road, Wan Chai, Hong Kong",24 Hours,,,22.2777219,114.1719656,"G/F., Warner Building, 91 Hennessy Road, Hong Kong",22.277742,114.171826,0.0145583068824166,Wanchai
Wan Chai,"Shop Nos. 111-112, 1/F, Great Eagle Centre, No. 23 Harbour Road, Wan Chai, Hong Kong",,Monday to Friday: 0700-2300,Saturday: 0700-2300,22.2810258,114.1750919,"Shop A, G/F., Nos. 146 Lockhart Road, Hong Kong",22.2780541,114.1729075,0.3987048143466555,Wanchai
North Point,"Shop No. 3, G/F, Ming Yuen Centre, Nos. 400-404 King's Road, Nos. 4A/4B, 6A/6B & 6C Ming Yuen Western Street, North Point, Hong Kong",24 Hours,,,22.290403,114.1986937,"G/F., No. 22 Fort Street, Hong Kong",22.2896055,114.1969904,0.1964900072630654,North Point
Wan Chai,"Shop No. A2, G/F, Success Commercial Building, Nos. 245-251 Hennessy Road, Wan Chai, Hong Kong",,Monday to Friday: 0700-2300,Saturday: 0700-2300,22.2781645,114.1762153,"G/F., 89 Wan Chai Road, Hong Kong",22.276516,114.1750012,0.2213121043688557,Wanchai
Sheung Wan,Station Kiosk No. SHW 1 at MTR Sheung Wan Station,,Monday to Friday: 0700-2300,Saturday: 0700-2000,22.2865601,114.1518714,"Shop 11, 12 and 13, G/F., Western Market, 323 Des Voeux Road, Sheung Wan, Hong Kong",22.287287,114.150392,0.172401124396327,Sheung Wan
Aberdeen,"G/F, No. 11 Wu Nam Street, Aberdeen, Hong Kong",24 Hours,,,22.2478398,114.1549769,"Ground Floor, No. 23 Tung Sing Road, Hong Kong",22.2487125,114.1551595,0.0984532897613144,Aberdeen
Sheung Wan,"G/F, No. 55 Bonham Road, Hong Kong",24 Hours,,,22.2848531,114.1412029,"Shop A G/F., No. 64 Centre Street, Hong Kong",22.284929,114.142068,0.0895478513269435,Western District
Shau Kei Wan,"G/F, No. 7 Shing On Street, Shau Kei Wan, Hong Kong",24 Hours,,,22.2817946,114.2214148,"Shop B G/F., Nos 106-108 Shau Kei Wan Road, Hong Kong",22.2821321,114.2216237,0.0431300579372192,Shau Kei Wan
Causeway Bay,"Shop T, G/F & M/F, Hong Kong Mansion, No. 1A-1L Yee Woo Street, Causeway Bay, Hong Kong",24 Hours,,,22.28001,114.1855,"G/F., 33 Jardine's Bazaar, Hong Kong",22.2795144,114.1849559,0.0784607788230178,Causeway Bay
Central,Shop No. CEN W9 at MTR Central Station,,Monday to Friday: 0700-0000,Saturday: 0700-0000,22.2799907,114.1587983,Kiosk No. CEN E7 MTR Central Station,22.2819989,114.1576766,0.2506280725125144,Central
Chai Wan,"Shop No. 49, G/F, Block A, Walton Estate, Nos. 341-343 Chai Wan Road, Nos. 1-3 Yee Shun Street, Chai Wan, Hong Kong",24 Hours,,,22.264069,114.239652,"KIOSK No. CHW12 at Chai Wan Station, Chai Wan (Exit C)",22.264625,114.237139,0.2662309577861279,Chai Wan
Wan Chai,"Shop Nos. G48 & G49, G/F, Man On House, Nos. 151-163 Wanchai Road, Nos. 12 A-C Burrows Street, Nos. 17-27 Cross Lane, Wan Chai, Hong Kong",24 Hours,,,22.2767688,114.1767726,"G/F., 89 Wan Chai Road, Hong Kong",22.276516,114.1750012,0.1846954332363409,Wanchai
Admiralty,"Shop No. 22, 1/F of the Podium, Admiralty Centre, No. 18 Harcourt Road, Admiralty, Hong Kong",,Monday to Friday: 0700-2100,Saturday: 0700-2100,22.2795729,114.1649935,"Shop No. F01-02, Lab Concept, 1/F Queensway Plaza, 93 Queensway, Hong Kong",22.278565,114.164798,0.1134128711624952,Queensway
Western,"G/F & C/F, No. 240 Queen's Road West, Sai Ying Pun, Hong Kong",24 Hours,,,22.2868273,114.143323,"Ground Floor, 202 Centre, No. 202 Des Voeux Road West, Hong Kong",22.287718,114.142918,0.1070980288224669,Sai Wan
Sai Wan Ho,"Shop No. 3, G/F, Youth Outreach Jockey Club Building, Nos. 1-18 Hing Man Street, Shau Kei Wan, Hong Kong",24 Hours,,,22.281316,114.223342,"Shop B G/F., Nos 106-108 Shau Kei Wan Road, Hong Kong",22.2821321,114.2216237,0.1988090909251544,Shau Kei Wan
Apleichau,"Shop B, G/F, Coble Court, Nos. 127-139 Apleichau Main Street, Apleichau, Hong Kong",24 Hours,,,22.2435165,114.1544335,"Ground Floor, No. 85 Main Street Ap Lei Chau, Hong Kong",22.2438216,114.1553876,0.1039940817788377,Ap Lei Chau
Western,"Shop No. 1, G/F, Shuttle Lift Complex, Kwun Lung Lau, No. 20 Lung Wah Street, Kennedy Town, Hong Kong",24 Hours,,,22.2806867,114.1278753,"Shop B2 & Shop C G/F., Luen Wai Apartments, Nos. 136, 136A, 138, 140 & 142 Belcher??s Street, Nos. 7 & 7A Davis Street, Hong Kong",22.2822362,114.1270344,0.1922254672747075,Sai Wan
Shau Kei Wan,Kiosk No. SKW 6 at Unpaid Concourse of MTR Shau Kei Wan Station,,Monday to Friday: 0700-0000,Saturday: 0700-0000,22.2792428,114.2288794,"Shop No.14 G/F., Oi Tung Shopping Centre, Shau Kei Wan",22.2808612,114.2277794,0.2120574033369169,Shau Kei Wan
Tai Koo Shing,Kiosk No. TAK 15 at Unpaid Concourse of MTR Tai Koo Station,,Monday to Friday: 0700-0000,Saturday: 0700-0000,22.28465,114.21636,"KIOSK NO. TAK9, Tai Koo MTR Station",22.28465,114.21636,0.0,Taikoo
Chai Wan,"Shop Unit 161, Paradise Mall, Hang Fa Chuen, Hong Kong",,Monday to Friday: 0700-2200,Saturday: 0700-2200,22.2767315,114.2399396,Kiosk No. HFC5 & 6 Heng Fa Chuen Station,22.276657,114.239691,0.0269162857482562,Heng Fa Chuen
Siu Sai Wan,"Shop No. 60, UG/F, Island Resort Mall, No. 28 Siu Sai Wan Road, Chai Wan, Hong Kong",,Monday to Friday: 0700-2200,Saturday: 0700-2200,22.266226,114.2508984,"Shop No.18 G/F., Island Resort Mall, 28 Siu Sai Wan Road, Siu Sai Wan, Hong Kong",22.266226,114.2508984,0.0,Siu Sai Wan
Causeway Bay,Kiosk CAB E11 at Unpaid Concourse of MTR Causeway Bay Station,,Monday to Friday: 0700-0000,Saturday: 0700-0000,22.2803747,114.1850421,"G/F., 33 Jardine's Bazaar, Hong Kong",22.2795144,114.1849559,0.0956778318793287,Causeway Bay
Central,"G/F, No. 40 Elgin Street, Central, Hong Kong",24 Hours,,,22.281505,114.1527376,"Shop No. 28A G/F., Lily Court,? 28A Robinson Road, HK",22.2794066,114.1521066,0.2412924500369958,Central
North Point,"Shop No.1 on Lower Ground Floor, Braemar Hill Shopping Centre, No. 45 Braemar Hill Road, Braemar Hill, Hong Kong",,Monday to Friday: 0700-2300,Saturday: 0700-2300,22.2855851,114.2019764,"Shop No.4, G/F., Cheong Yuen Apartments, Nos.2,4,6,8,8A Tsat Tsz Mui Road, North Point",22.2906342,114.2007566,0.5730645566355521,North Point
Central,"G/F, No. 154 Des Voeux Road Central, Central, Hong Kong",24 Hours,,,22.2855173,114.1542343,"Shop No.1 G/F., & Open Yard Nos.10-16 Cochrane Street, Hong Kong",22.2831647,114.1546298,0.2636822295898822,Central
Sheung Wan,Kiosk No. SHW 9 at Unpaid Concourse of MTR Sheung Wan Station,,Monday to Friday: 0700-0000,Saturday: 0700-0000,22.2865601,114.1518714,"Shop 11, 12 and 13, G/F., Western Market, 323 Des Voeux Road, Sheung Wan, Hong Kong",22.287287,114.150392,0.172401124396327,Sheung Wan
North Point,"Shop No. U3, UG/F, FitFort, No. 560 King's Road, North Point, Hong Kong",24 Hours,,,22.2917523,114.2043233,"Shop No. A at Podium Level 1, Phase 1, Healthy Village, Tsat Tsz Mui Road, North Point, Hong Kong",22.2918325,114.2060903,0.1823050267388212,North Point
Causeway Bay,"Shop Nos. 8 & 9, G/F, Bay View Mansion, Nos. 13-33 Moreton Terrace, Causeway Bay, Hong Kong",24 Hours,,,22.2795895,114.188755,"G/F., 33 Jardine's Bazaar, Hong Kong",22.2795144,114.1849559,0.3916179998098838,Causeway Bay
Central,"G/F, Cheung Hing Commercial Building, No. 37 Cochrane Street, Central, Hong Kong",24 Hours,,,22.2827822,114.1539409,"Shop No.1 G/F., & Open Yard Nos.10-16 Cochrane Street, Hong Kong",22.2831647,114.1546298,0.0826701043425772,Central
Causeway Bay,"Shop Nos. 6 & 13, G/F, Lei-Shun Court, Nos. 106/126 Leighton Road, Nos. 1/5 Haven Street & No. 1 Caroline Hill Road, Hong Kong",24 Hours,,,22.2778546,114.1864278,"G/F., 33 Jardine's Bazaar, Hong Kong",22.2795144,114.1849559,0.2383103318753724,Causeway Bay
Western,"Shop No. UG07 on Upper Ground Floor, The Westwood of the Belcher's, No. 8 Belcher’s Street, Shek Tong Tsui, Hong Kong",,Monday to Friday: 0900-2300,Saturday: 0900-2300,22.285556,114.133611,"Shop 6 on Ground Floor, Sands House,Nos.10,12,14 & 18 Sands Street Nos.39, 39A & 39B Belcher’s Street, Hong Kong",22.283467,114.1300622,0.4327385303576501,Sai Wan
Quarry Bay,"Portion B of Shop No. LG3 on Lower G/F of Westlands Gardens, Nos. 1025-1037 King’s Road & Nos. 2-10, 12A-12H Westlands Road, Quarry Bay, Hong Kong",,Monday to Friday: 0700-2300,Saturday: 0700-2300,22.284902,114.2129603,"Portion and Toilet Portion of Shop No.G7 on Ground Floor of Westlands Gardens, Nos. 1025-1037 King’s Road, Nos. 2-10,12A-12H Westlands Road, Hong Kong",22.284902,114.2129603,0.0,Quarry Bay
Central,"G/F & C/L, Nos. 9-11 Cochrane Street, Central, Hong Kong",24 Hours,,,22.283497,114.154676,"Shop No.1 G/F., & Open Yard Nos.10-16 Cochrane Street, Hong Kong",22.2831647,114.1546298,0.0371036937007752,Central
Admiralty,Kiosk No. ADM 16 at MTR Admiralty Station,,Monday to Friday: 0700-0000,Saturday: 0700-0000,22.2796357,114.1654865,"Shop No. 1002B, 1/F., United Centre, 95 Queensway, Hong Kong",22.278546,114.1652079,0.1240358499251343,Central
North Point,"Shop No. 130, 1/F, Island Place, No. 500 King's Road, North Point, Hong Kong",,Monday to Friday: 0700-2300,Saturday: 0700-2300,22.2913428,114.2021832,"G/F, No. 484 King’s Road, Hong Kong",22.2912043,114.2015413,0.0679024326679545,North Point
Sheung Wan,"G/F, Teng Fuh Commercial Building, Nos. 331-333 Queen's Road Central, Central, Hong Kong",24 Hours,,,22.2861413,114.1462766,"Shops D & H, G/F., Sea View Mansion, No. 82, 83, 84, 86, 87 Connaught Road West, Nos. 21, 23, 25, 27 Sutherland Street, Hong Kong",22.2881338,114.1461184,0.2212393247587279,Sheung Wan
Sheung Wan,"Ground Floor of Enterprise Building, 238 Queen’s Road Central, Hong Kong",,Monday to Friday: 0700-2300,Saturday: 0700-2300,22.2845568,114.1516169,"Shop 11, 12 and 13, G/F., Western Market, 323 Des Voeux Road, Sheung Wan, Hong Kong",22.287287,114.150392,0.3276208564250294,Sheung Wan
Apleichau,"Shop No. 205, Ground Floor, Commercial Complex 2, Lei Tung Estate, No. 5 Lei Tung Estate Road, Apleichau, Hong Kong",24 Hours,,,22.2414074,114.1560313,"Ground Floor, No. 85 Main Street Ap Lei Chau, Hong Kong",22.2438216,114.1553876,0.2754451979693055,Ap Lei Chau
